start=new Date('2021-12-13T00:00:00.000Z').valueOf();
sats=[{"MEAN_MOTION":"15.06394623","MEAN_ANOMALY":"266.6723","PERIOD":"95.592","DECAY_DATE":null,"RCS_SIZE":"LARGE","BSTAR":"-0.00007045800000","MEAN_ELEMENT_THEORY":"SGP4","CENTER_NAME":"EARTH","NORAD_CAT_ID":"46354","REV_AT_EPOCH":"7101","FILE":"3238376","RA_OF_ASC_NODE":"125.0957","GP_ID":"191585960","TLE_LINE1":"1 46354U 20062AF  21346.85832796 -.00001331  00000-0 -70458-4 0  9994","SEMIMAJOR_AXIS":"6925.365","ELEMENT_SET_NO":"999","TLE_LINE2":"2 46354  53.0539 125.0957 0001570  93.4446 266.6723 15.06394623 71011","CLASSIFICATION_TYPE":"U","MEAN_MOTION_DDOT":"0.0000000000000","OBJECT_NAME":"STARLINK-1657","OBJECT_TYPE":"PAYLOAD","LAUNCH_DATE":"2020-09-03","ECCENTRICITY":"0.00015700","COUNTRY_CODE":"US","MEAN_MOTION_DOT":"-0.00001331","PERIAPSIS":"546.143","INCLINATION":"53.0539","EPHEMERIS_TYPE":"0","ARG_OF_PERICENTER":"93.4446","SITE":"AFETR","APOAPSIS":"548.317","OBJECT_ID":"2020-062AF","REF_FRAME":"TEME","EPOCH":"2021-12-12T20:35:59.535744","TIME_SYSTEM":"UTC"},{"LAUNCH_DATE":"2020-09-03","ECCENTRICITY":"0.00019440","COUNTRY_CODE":"US","MEAN_MOTION_DOT":"0.00000809","PERIAPSIS":"545.868","INCLINATION":"53.0546","EPHEMERIS_TYPE":"0","ARG_OF_PERICENTER":"101.0243","SITE":"AFETR","APOAPSIS":"548.561","OBJECT_ID":"2020-062AG","REF_FRAME":"TEME","EPOCH":"2021-12-12T18:23:19.606560","TIME_SYSTEM":"UTC","MEAN_MOTION":"15.06399605","MEAN_ANOMALY":"259.0964","DECAY_DATE":null,"RCS_SIZE":"LARGE","PERIOD":"95.592","BSTAR":"0.00007323000000","MEAN_ELEMENT_THEORY":"SGP4","CENTER_NAME":"EARTH","NORAD_CAT_ID":"46355","REV_AT_EPOCH":"7100","FILE":"3238376","RA_OF_ASC_NODE":"125.5163","GP_ID":"191586212","ELEMENT_SET_NO":"999","TLE_LINE1":"1 46355U 20062AG  21346.76619915  .00000809  00000-0  73230-4 0  9999","SEMIMAJOR_AXIS":"6925.350","CLASSIFICATION_TYPE":"U","TLE_LINE2":"2 46355  53.0546 125.5163 0001944 101.0243 259.0964 15.06399605 71007","MEAN_MOTION_DDOT":"0.0000000000000","OBJECT_NAME":"STARLINK-1661","OBJECT_TYPE":"PAYLOAD"},{"INCLINATION":"53.0530","EPHEMERIS_TYPE":"0","SITE":"AFETR","ARG_OF_PERICENTER":"98.9291","APOAPSIS":"548.466","OBJECT_ID":"2020-062AH","REF_FRAME":"TEME","EPOCH":"2021-12-12T20:14:47.858208","TIME_SYSTEM":"UTC","LAUNCH_DATE":"2020-09-03","ECCENTRICITY":"0.00018080","COUNTRY_CODE":"US","MEAN_MOTION_DOT":"0.00000706","PERIAPSIS":"545.962","GP_ID":"191587459","TLE_LINE1":"1 46356U 20062AH  21346.84360947  .00000706  00000-0  66319-4 0  9993","SEMIMAJOR_AXIS":"6925.349","ELEMENT_SET_NO":"999","TLE_LINE2":"2 46356  53.0530 125.1749 0001808  98.9291 261.1902 15.06399946 71018","CLASSIFICATION_TYPE":"U","OBJECT_NAME":"STARLINK-1665","MEAN_MOTION_DDOT":"0.0000000000000","OBJECT_TYPE":"PAYLOAD","MEAN_MOTION":"15.06399946","MEAN_ANOMALY":"261.1902","DECAY_DATE":null,"RCS_SIZE":"LARGE","PERIOD":"95.592","BSTAR":"0.00006631900000","MEAN_ELEMENT_THEORY":"SGP4","CENTER_NAME":"EARTH","NORAD_CAT_ID":"46356","REV_AT_EPOCH":"7101","FILE":"3238376","RA_OF_ASC_NODE":"125.1749"},{"EPOCH":"2021-12-12T18:36:33.934464","TIME_SYSTEM":"UTC","APOAPSIS":"548.125","OBJECT_ID":"2020-062AJ","REF_FRAME":"TEME","INCLINATION":"53.0556","EPHEMERIS_TYPE":"0","SITE":"AFETR","ARG_OF_PERICENTER":"92.3959","MEAN_MOTION_DOT":"-0.00000741","PERIAPSIS":"546.330","COUNTRY_CODE":"US","ECCENTRICITY":"0.00012960","LAUNCH_DATE":"2020-09-03","MEAN_MOTION_DDOT":"0.0000000000000","OBJECT_NAME":"STARLINK-1666","OBJECT_TYPE":"PAYLOAD","GP_ID":"191587715","SEMIMAJOR_AXIS":"6925.363","TLE_LINE1":"1 46357U 20062AJ  21346.77539276 -.00000741  00000-0 -30854-4 0  9995","ELEMENT_SET_NO":"999","CLASSIFICATION_TYPE":"U","TLE_LINE2":"2 46357  53.0556 105.4879 0001296  92.3959 267.7178 15.06395450 71284","REV_AT_EPOCH":"7128","FILE":"3238376","RA_OF_ASC_NODE":"105.4879","DECAY_DATE":null,"RCS_SIZE":"LARGE","PERIOD":"95.592","BSTAR":"-0.00003085400000","MEAN_ELEMENT_THEORY":"SGP4","CENTER_NAME":"EARTH","NORAD_CAT_ID":"46357","MEAN_ANOMALY":"267.7178","MEAN_MOTION":"15.06395450"},{"DECAY_DATE":null,"RCS_SIZE":"LARGE","PERIOD":"95.592","BSTAR":"0.00008756700000","MEAN_ELEMENT_THEORY":"SGP4","CENTER_NAME":"EARTH","NORAD_CAT_ID":"46358","REV_AT_EPOCH":"7097","FILE":"3238133","RA_OF_ASC_NODE":"126.4568","MEAN_MOTION":"15.06396316","MEAN_ANOMALY":"253.4025","OBJECT_NAME":"STARLINK-1690","MEAN_MOTION_DDOT":"0.0000000000000","OBJECT_TYPE":"PAYLOAD","GP_ID":"191557199","SEMIMAJOR_AXIS":"6925.360","TLE_LINE1":"1 46358U 20062AK  21346.55607599  .00001023  00000-0  87567-4 0  9991","ELEMENT_SET_NO":"999","TLE_LINE2":"2 46358  53.0534 126.4568 0001590 106.7138 253.4025 15.06396316 70975","CLASSIFICATION_TYPE":"U","COUNTRY_CODE":"US","MEAN_MOTION_DOT":"0.00001023","PERIAPSIS":"546.124","LAUNCH_DATE":"2020-09-03","ECCENTRICITY":"0.00015900","APOAPSIS":"548.326","OBJECT_ID":"2020-062AK","REF_FRAME":"TEME","EPOCH":"2021-12-12T13:20:44.965536","TIME_SYSTEM":"UTC","INCLINATION":"53.0534","EPHEMERIS_TYPE":"0","SITE":"AFETR","ARG_OF_PERICENTER":"106.7138"},{"TLE_LINE1":"1 46359U 20062AL  21346.66896014  .00001119  00000-0  94008-4 0  9990","SEMIMAJOR_AXIS":"6925.346","ELEMENT_SET_NO":"999","GP_ID":"191586713","CLASSIFICATION_TYPE":"U","TLE_LINE2":"2 46359  53.0555  80.9577 0001062  82.4166 277.6943 15.06400898 71618","OBJECT_NAME":"STARLINK-1707","MEAN_MOTION_DDOT":"0.0000000000000","OBJECT_TYPE":"PAYLOAD","MEAN_MOTION":"15.06400898","MEAN_ANOMALY":"277.6943","BSTAR":"0.00009400800000","MEAN_ELEMENT_THEORY":"SGP4","DECAY_DATE":null,"PERIOD":"95.592","RCS_SIZE":"LARGE","NORAD_CAT_ID":"46359","CENTER_NAME":"EARTH","REV_AT_EPOCH":"7161","RA_OF_ASC_NODE":"80.9577","FILE":"3238376","EPHEMERIS_TYPE":"0","INCLINATION":"53.0555","SITE":"AFETR","ARG_OF_PERICENTER":"82.4166","APOAPSIS":"547.946","REF_FRAME":"TEME","OBJECT_ID":"2020-062AL","EPOCH":"2021-12-12T16:03:18.156096","TIME_SYSTEM":"UTC","LAUNCH_DATE":"2020-09-03","ECCENTRICITY":"0.00010620","COUNTRY_CODE":"US","PERIAPSIS":"546.475","MEAN_MOTION_DOT":"0.00001119"},{"ECCENTRICITY":"0.00012760","LAUNCH_DATE":"2020-09-03","MEAN_MOTION_DOT":"0.00001295","PERIAPSIS":"546.334","COUNTRY_CODE":"US","ARG_OF_PERICENTER":"81.2355","SITE":"AFETR","INCLINATION":"53.0553","EPHEMERIS_TYPE":"0","TIME_SYSTEM":"UTC","EPOCH":"2021-12-12T13:24:03.927456","OBJECT_ID":"2020-062AM","REF_FRAME":"TEME","APOAPSIS":"548.102","MEAN_ANOMALY":"278.8778","MEAN_MOTION":"15.06398578","FILE":"3238133","RA_OF_ASC_NODE":"81.4574","REV_AT_EPOCH":"7160","CENTER_NAME":"EARTH","NORAD_CAT_ID":"46360","RCS_SIZE":"LARGE","DECAY_DATE":null,"PERIOD":"95.592","BSTAR":"0.00010579000000","MEAN_ELEMENT_THEORY":"SGP4","CLASSIFICATION_TYPE":"U","TLE_LINE2":"2 46360  53.0553  81.4574 0001276  81.2355 278.8778 15.06398578 71604","GP_ID":"191556697","ELEMENT_SET_NO":"999","TLE_LINE1":"1 46360U 20062AM  21346.55837879  .00001295  00000-0  10579-3 0  9999","SEMIMAJOR_AXIS":"6925.353","OBJECT_TYPE":"PAYLOAD","MEAN_MOTION_DDOT":"0.0000000000000","OBJECT_NAME":"STARLINK-1713"},{"MEAN_MOTION":"15.06393211","MEAN_ANOMALY":"267.9281","RCS_SIZE":"LARGE","DECAY_DATE":null,"PERIOD":"95.593","MEAN_ELEMENT_THEORY":"SGP4","BSTAR":"-0.00002853000000","CENTER_NAME":"EARTH","NORAD_CAT_ID":"46361","REV_AT_EPOCH":"7161","FILE":"3238376","RA_OF_ASC_NODE":"80.9953","GP_ID":"191587215","SEMIMAJOR_AXIS":"6925.369","TLE_LINE1":"1 46361U 20062AN  21346.66159031 -.00000706  00000-0 -28530-4 0  9994","ELEMENT_SET_NO":"999","CLASSIFICATION_TYPE":"U","TLE_LINE2":"2 46361  53.0560  80.9953 0001086  92.1833 267.9281 15.06393211 71617","OBJECT_NAME":"STARLINK-1722","MEAN_MOTION_DDOT":"0.0000000000000","OBJECT_TYPE":"PAYLOAD","LAUNCH_DATE":"2020-09-03","ECCENTRICITY":"0.00010860","COUNTRY_CODE":"US","MEAN_MOTION_DOT":"-0.00000706","PERIAPSIS":"546.482","INCLINATION":"53.0560","EPHEMERIS_TYPE":"0","ARG_OF_PERICENTER":"92.1833","SITE":"AFETR","APOAPSIS":"547.986","OBJECT_ID":"2020-062AN","REF_FRAME":"TEME","EPOCH":"2021-12-12T15:52:41.402784","TIME_SYSTEM":"UTC"},{"MEAN_MOTION":"15.06398796","MEAN_ANOMALY":"276.3048","RCS_SIZE":"LARGE","DECAY_DATE":null,"PERIOD":"95.592","MEAN_ELEMENT_THEORY":"SGP4","BSTAR":"0.00010277000000","CENTER_NAME":"EARTH","NORAD_CAT_ID":"46362","REV_AT_EPOCH":"7161","FILE":"3238376","RA_OF_ASC_NODE":"81.0787","GP_ID":"191585961","SEMIMAJOR_AXIS":"6925.352","TLE_LINE1":"1 46362U 20062AP  21346.63946870  .00001250  00000-0  10277-3 0  9998","ELEMENT_SET_NO":"999","CLASSIFICATION_TYPE":"U","TLE_LINE2":"2 46362  53.0545  81.0787 0001352  83.8095 276.3048 15.06398796 71619","OBJECT_NAME":"STARLINK-1726","MEAN_MOTION_DDOT":"0.0000000000000","OBJECT_TYPE":"PAYLOAD","LAUNCH_DATE":"2020-09-03","ECCENTRICITY":"0.00013520","COUNTRY_CODE":"US","MEAN_MOTION_DOT":"0.00001250","PERIAPSIS":"546.281","INCLINATION":"53.0545","EPHEMERIS_TYPE":"0","ARG_OF_PERICENTER":"83.8095","SITE":"AFETR","APOAPSIS":"548.154","OBJECT_ID":"2020-062AP","REF_FRAME":"TEME","EPOCH":"2021-12-12T15:20:50.095680","TIME_SYSTEM":"UTC"},{"EPOCH":"2021-12-12T16:45:45.837216","TIME_SYSTEM":"UTC","APOAPSIS":"548.123","OBJECT_ID":"2020-062AQ","REF_FRAME":"TEME","INCLINATION":"53.0555","EPHEMERIS_TYPE":"0","SITE":"AFETR","ARG_OF_PERICENTER":"95.6874","MEAN_MOTION_DOT":"-0.00000667","PERIAPSIS":"546.356","COUNTRY_CODE":"US","ECCENTRICITY":"0.00012760","LAUNCH_DATE":"2020-09-03","MEAN_MOTION_DDOT":"0.0000000000000","OBJECT_NAME":"STARLINK-1739","OBJECT_TYPE":"PAYLOAD","GP_ID":"191586213","TLE_LINE1":"1 46363U 20062AQ  21346.69844719 -.00000667  00000-0 -25867-4 0  9999","SEMIMAJOR_AXIS":"6925.375","ELEMENT_SET_NO":"999","TLE_LINE2":"2 46363  53.0555  80.8182 0001276  95.6874 264.4261 15.06391483 71620","CLASSIFICATION_TYPE":"U","REV_AT_EPOCH":"7162","FILE":"3238376","RA_OF_ASC_NODE":"80.8182","DECAY_DATE":null,"RCS_SIZE":"LARGE","PERIOD":"95.593","MEAN_ELEMENT_THEORY":"SGP4","BSTAR":"-0.00002586700000","CENTER_NAME":"EARTH","NORAD_CAT_ID":"46363","MEAN_ANOMALY":"264.4261","MEAN_MOTION":"15.06391483"}];
